NORAD_CAT_ID,OBJECT_NAME,OBJECT_TYPE,EPOCH,MEAN_MOTION,ECCENTRICITY,INCLINATION,RA_OF_ASC_NODE,ARG_OF_PERICENTER,MEAN_ANOMALY,BSTAR,MEAN_MOTION_DOT,MEAN_MOTION_DDOT,TLE_LINE0,TLE_LINE1,TLE_LINE2,SEMIMAJOR_AXIS,PERIOD,APOGEE,PERIGEE,DECAYED
49447.0,STARLINK-3115,PAYLOAD,2023-03-19 05:13:05,15.08863384,0.0001267,53.2181,56.4828,90.3193,269.7944,0.00081756,0.00012756,0.0,0 STARLINK-3115,1 49447U 21104AR  23078.21742786  .00012756  00000-0  81756-3 0  9994,2 49447  53.2181  56.4828 0001267  90.3193 269.7944 15.08863384 75823,6917.809,95.436,540.55,538.797,0.0
49447.0,STARLINK-3115,PAYLOAD,2023-03-19 08:23:53,15.08796849,0.0001929,53.2177,55.8885,97.0553,263.0659,-0.0020105,-0.00032106,0.0,0 STARLINK-3115,1 49447U 21104AR  23078.34991911 -.00032106  00000-0 -20105-2 0  9997,2 49447  53.2177  55.8885 0001929  97.0553 263.0659 15.08796849 75846,6918.012,95.44,541.212,538.543,0.0
49447.0,STARLINK-3115,PAYLOAD,2023-03-20 05:03:52,15.08852715,0.0001261,53.2185,52.0223,106.1414,253.9717,0.00079113,0.0001233,0.0,0 STARLINK-3115,1 49447U 21104AR  23079.21102693  .00012330  00000-0  79113-3 0  9994,2 49447  53.2185  52.0223 0001261 106.1414 253.9717 15.08852715 75979,6917.842,95.437,540.579,538.834,0.0
49447.0,STARLINK-3115,PAYLOAD,2023-03-20 08:14:38,15.08859614,0.000129,53.2186,51.4278,109.1595,250.9537,0.0010105,0.00015839,0.0,0 STARLINK-3115,1 49447U 21104AR  23079.34350539  .00015839  00000-0  10105-2 0  9994,2 49447  53.2186  51.4278 0001290 109.1595 250.9537 15.08859614 74924,6917.82,95.436,540.578,538.793,0.0
49447.0,STARLINK-3115,PAYLOAD,2023-03-20 22:33:07,15.08848214,0.0001617,53.2194,48.7521,114.9229,245.1932,0.00021788,3.182e-05,0.0,0 STARLINK-3115,1 49447U 21104AR  23079.93967074  .00003182  00000-0  21788-3 0  9995,2 49447  53.2194  48.7521 0001617 114.9229 245.1932 15.08848214 76082,6917.855,95.437,540.839,538.602,0.0
49447.0,STARLINK-3115,PAYLOAD,2023-03-21 08:05:26,15.08850788,0.0001172,53.2191,46.9677,105.2731,254.8391,0.00089871,0.00014048,0.0,0 STARLINK-3115,1 49447U 21104AR  23080.33711168  .00014048  00000-0  89871-3 0  9992,2 49447  53.2191  46.9677 0001172 105.2731 254.8391 15.08850788 75071,6917.847,95.437,540.523,538.902,0.0
49447.0,STARLINK-3115,PAYLOAD,2023-03-22 04:45:27,15.08847177,0.0001212,53.2192,43.1027,103.4861,256.6266,0.0013494,0.00021257,0.0,0 STARLINK-3115,1 49447U 21104AR  23081.19823834  .00021257  00000-0  13494-2 0  9998,2 49447  53.2192  43.1027 0001212 103.4861 256.6266 15.08847177 76271,6917.858,95.437,540.562,538.885,0.0
49447.0,STARLINK-3115,PAYLOAD,2023-03-22 06:20:50,15.0885041,0.0001188,53.2191,42.8053,102.8472,257.2653,0.0013855,0.00021837,0.0,0 STARLINK-3115,1 49447U 21104AR  23081.26447789  .00021837  00000-0  13855-2 0  9992,2 49447  53.2191  42.8053 0001188 102.8472 257.2653 15.08850410 75212,6917.849,95.437,540.535,538.892,0.0
49447.0,STARLINK-3115,PAYLOAD,2023-03-23 04:36:14,15.0884999,0.0001471,53.2191,38.6419,83.0146,277.1014,0.00056588,8.732e-05,0.0,0 STARLINK-3115,1 49447U 21104AR  23082.19183665  .00008732  00000-0  56588-3 0  9995,2 49447  53.2191  38.6419 0001471  83.0146 277.1014 15.08849990 76421,6917.85,95.437,540.732,538.697,0.0
49447.0,STARLINK-3115,PAYLOAD,2023-03-23 06:11:37,15.08858123,0.0001429,53.2189,38.3438,86.9659,273.1497,0.00058985,9.117e-05,0.0,0 STARLINK-3115,1 49447U 21104AR  23082.25807429  .00009117  00000-0  58985-3 0  9994,2 49447  53.2189  38.3438 0001429  86.9659 273.1497 15.08858123 75361,6917.825,95.436,540.679,538.701,0.0
49447.0,STARLINK-3115,PAYLOAD,2023-03-24 04:27:00,15.0892704,0.0001243,53.2178,34.1814,106.152,253.9609,0.0045456,0.00072979,0.0,0 STARLINK-3115,1 49447U 21104AR  23083.18542728  .00072979  00000-0  45456-2 0  9999,2 49447  53.2178  34.1814 0001243 106.1520 253.9609 15.08927040 76577,6917.614,95.432,540.339,538.619,0.0
49447.0,STARLINK-3115,PAYLOAD,2023-03-24 06:02:24,15.08947252,0.0001234,53.2178,33.8844,108.6054,251.5072,0.0078206,0.00126797,0.0,0 STARLINK-3115,1 49447U 21104AR  23083.25166783  .00126797  00000-0  78206-2 0  9997,2 49447  53.2178  33.8844 0001234 108.6054 251.5072 15.08947252 76581,6917.553,95.431,540.271,538.564,0.0
49447.0,STARLINK-3115,PAYLOAD,2023-03-25 02:42:24,15.08869847,0.0001566,53.2178,30.0188,82.5162,277.6008,0.0017723,0.00028054,0.0,0 STARLINK-3115,1 49447U 21104AR  23084.11278590  .00028054  00000-0  17723-2 0  9997,2 49447  53.2178  30.0188 0001566  82.5162 277.6008 15.08869847 76715,6917.789,95.436,540.737,538.571,0.0
49447.0,STARLINK-3115,PAYLOAD,2023-03-25 07:28:33,15.0887507,0.0001378,53.2175,29.1261,78.8098,281.3049,0.0017026,0.00026939,0.0,0 STARLINK-3115,1 49447U 21104AR  23084.31150189  .00026939  00000-0  17026-2 0  9998,2 49447  53.2175  29.1261 0001378  78.8098 281.3049 15.08875070 75676,6917.773,95.435,540.591,538.685,0.0
49447.0,STARLINK-3115,PAYLOAD,2023-03-26 02:33:12,15.08835156,0.0001389,53.2185,25.5602,65.2118,294.9018,0.0021013,0.00033308,0.0,0 STARLINK-3115,1 49447U 21104AR  23085.10639803  .00033308  00000-0  21013-2 0  9990,2 49447  53.2185  25.5602 0001389  65.2118 294.9018 15.08835156 76860,6917.895,95.438,540.721,538.799,0.0
49447.0,STARLINK-3115,PAYLOAD,2023-03-26 05:43:59,15.08841497,0.0001243,53.2182,24.965,56.7575,303.3536,0.0023405,0.00037159,0.0,0 STARLINK-3115,1 49447U 21104AR  23085.23887869  .00037159  00000-0  23405-2 0  9996,2 49447  53.2182  24.9650 0001243  56.7575 303.3536 15.08841497 75813,6917.876,95.437,540.601,538.881,0.0
49447.0,STARLINK-3115,PAYLOAD,2023-03-27 02:24:00,15.08842299,0.0001357,53.2183,21.0996,79.9883,280.1262,0.0018282,0.00028929,0.0,0 STARLINK-3115,1 49447U 21104AR  23086.10000538  .00028929  00000-0  18282-2 0  9995,2 49447  53.2183  21.0996 0001357  79.9883 280.1262 15.08842299 77013,6917.873,95.437,540.677,538.8,0.0
49447.0,STARLINK-3115,PAYLOAD,2023-03-27 19:53:14,15.08848994,0.0001244,53.2188,17.8315,69.4892,290.6234,0.0007839,0.00012213,0.0,0 STARLINK-3115,1 49447U 21104AR  23086.82864188  .00012213  00000-0  78390-3 0  9999,2 49447  53.2188  17.8315 0001244  69.4892 290.6234 15.08848994 77120,6917.853,95.437,540.578,538.857,0.0
49447.0,STARLINK-3115,PAYLOAD,2023-03-28 02:14:46,15.08859464,0.0001009,53.2174,16.6378,56.8679,303.241,0.00063885,9.899e-05,0.0,0 STARLINK-3115,1 49447U 21104AR  23087.09359716  .00009899  00000-0  63885-3 0  9994,2 49447  53.2174  16.6378 0001009  56.8679 303.2410 15.08859464 76099,6917.821,95.436,540.384,538.988,0.0
49447.0,STARLINK-3115,PAYLOAD,2023-03-28 18:08:38,15.08848496,0.0001137,53.2186,13.6662,79.0922,281.0198,0.0002031,2.947e-05,0.0,0 STARLINK-3115,1 49447U 21104AR  23087.75599801  .00002947  00000-0  20310-3 0  9991,2 49447  53.2186  13.6662 0001137  79.0922 281.0198 15.08848496 76195,6917.854,95.437,540.506,538.933,0.0
49447.0,STARLINK-3115,PAYLOAD,2023-03-29 00:30:10,15.08847938,9.7e-05,53.2178,12.4768,93.3142,266.7961,0.00012226,1.659e-05,0.0,0 STARLINK-3115,1 49447U 21104AR  23088.02095623  .00001659  00000-0  12226-3 0  9991,2 49447  53.2178  12.4768 0000970  93.3142 266.7961 15.08847938 77309,6917.856,95.437,540.392,539.05,0.0
49447.0,STARLINK-3115,PAYLOAD,2023-03-29 05:16:19,15.08859805,9.82e-05,53.2182,11.5833,93.8247,266.2858,0.00033225,5.007e-05,0.0,0 STARLINK-3115,1 49447U 21104AR  23088.21967100  .00005007  00000-0  33225-3 0  9993,2 49447  53.2182  11.5833 0000982  93.8247 266.2858 15.08859805 77330,6917.82,95.436,540.364,539.006,0.0
49447.0,STARLINK-3115,PAYLOAD,2023-03-30 05:07:07,15.08840746,9.19e-05,53.2173,7.1211,105.3264,254.7829,0.00017128,2.439e-05,0.0,0 STARLINK-3115,1 49447U 21104AR  23089.21328007  .00002439  00000-0  17128-3 0  9991,2 49447  53.2173   7.1211 0000919 105.3264 254.7829 15.08840746 77489,6917.878,95.438,540.379,539.107,0.0
49447.0,STARLINK-3115,PAYLOAD,2023-03-30 11:28:40,15.08831828,0.0001074,53.2165,5.9321,81.6339,278.4775,0.00024145,3.556e-05,0.0,0 STARLINK-3115,1 49447U 21104AR  23089.47824499  .00003556  00000-0  24145-3 0  9993,2 49447  53.2165   5.9321 0001074  81.6339 278.4775 15.08831828 77529,6917.905,95.438,540.513,539.027,0.0
49447.0,STARLINK-3115,PAYLOAD,2023-03-31 03:22:31,15.0886274,0.0001096,53.2178,2.9594,83.1751,276.9366,0.0012243,0.00019263,0.0,0 STARLINK-3115,1 49447U 21104AR  23090.14064126  .00019263  00000-0  12243-2 0  9999,2 49447  53.2178   2.9594 0001096  83.1751 276.9366 15.08862740 77628,6917.811,95.436,540.434,538.918,0.0
49447.0,STARLINK-3115,PAYLOAD,2023-03-31 19:16:22,15.08846802,0.0001058,53.2171,359.9852,98.6584,261.4529,0.00033088,4.983e-05,0.0,0 STARLINK-3115,1 49447U 21104AR  23090.80304294  .00004983  00000-0  33088-3 0  9999,2 49447  53.2171 359.9852 0001058  98.6584 261.4529 15.08846802 77728,6917.86,95.437,540.457,538.993,0.0
49447.0,STARLINK-3115,PAYLOAD,2023-04-01 03:13:18,15.08863366,0.0001064,53.2172,358.4982,103.6725,256.4385,0.00090779,0.00014198,0.0,0 STARLINK-3115,1 49447U 21104AR  23091.13423825  .00014198  00000-0  90779-3 0  9997,2 49447  53.2172 358.4982 0001064 103.6725 256.4385 15.08863366 77771,6917.809,95.436,540.41,538.938,0.0
49447.0,STARLINK-3115,PAYLOAD,2023-04-02 03:04:06,15.08843735,0.0001064,53.2179,354.0404,69.3331,290.7775,0.0016778,0.00026518,0.0,0 STARLINK-3115,1 49447U 21104AR  23092.12785262  .00026518  00000-0  16778-2 0  9998,2 49447  53.2179 354.0404 0001064  69.3331 290.7775 15.08843735 77929,6917.869,95.437,540.47,538.998,0.0
49447.0,STARLINK-3115,PAYLOAD,2023-04-02 20:33:20,15.08850039,0.0001397,53.2189,350.7704,79.6137,280.5012,0.00076264,0.00011874,0.0,0 STARLINK-3115,1 49447U 21104AR  23092.85649230  .00011874  00000-0  76264-3 0  9998,2 49447  53.2189 350.7704 0001397  79.6137 280.5012 15.08850039 78032,6917.85,95.437,540.681,538.748,0.0
49447.0,STARLINK-3115,PAYLOAD,2023-04-02 22:08:44,15.0885213,0.0001417,53.219,350.4733,79.862,280.2532,0.00077119,0.00012011,0.0,0 STARLINK-3115,1 49447U 21104AR  23092.92273165  .00012011  00000-0  77119-3 0  9990,2 49447  53.2190 350.4733 0001417  79.8620 280.2532 15.08852130 76974,6917.843,95.437,540.689,538.728,0.0
